TRANSPORTER-12 OBJECT AZ
1 62656U 25009AZ  26068.71026235  .00016057  00000+0  54903-3 0  9991
2 62656  97.3981 151.9913 0000987  45.3581 314.7740 15.30349724 63792
STARLINK-35025          
1 65430U 25192AC  26068.71707285  .00021902  00000+0  75005-3 0  9999
2 65430  53.1606 232.5559 0000832  84.1219 275.9876 15.30172330 29381
